{"type": "FeatureCollection", "features": [ {"type": "Feature", "properties": {"norad_id": 34117, "name": "COSMOS 2251 DEB", "group": "cosmos-2251-debris", "lat": 59.689217412507915, "lon": 24.29978907602509, "alt_km": 714.1237994950561, "timestamp": "2025-12-06T16:45:43.115326+00:00", "meta": {"OBJECT_NAME": "COSMOS 2251 DEB", "OBJECT_ID": "1993-036KN", "EPOCH": "2025-12-05T18:47:34.349280", "MEAN_MOTION": 14.39969266, "ECCENTRICITY": 0.00543901, "INCLINATION": 74.0403, "RA_OF_ASC_NODE": 356.6817, "ARG_OF_PERICENTER": 75.1599, "MEAN_ANOMALY": 285.5572, "EPHEMERIS_TYPE": 0, "CLASSIFICATION_TYPE": "U", "NORAD_CAT_ID": 34117, "ELEMENT_SET_NO": 999, "REV_AT_EPOCH": 88023, "BSTAR": 0.0011934293, "MEAN_MOTION_DOT": 3.798e-05, "MEAN_MOTION_DDOT": 0}, "tle": {"line1": "1 34117U 93036KN  25339.78303645  .00003798  00000+0  11934-2 0  9991", "line2": "2 34117  74.0403 356.6817 0054390  75.1599 285.5572 14.39969266880239"}}, "geometry": {"type": "Point", "coordinates": [24.29978907602509, 59.689217412507915]}}, {"type": "Feature", "properties": {"norad_id": 34118, "name": "COSMOS 2251 DEB", "group": "cosmos-2251-debris", "lat": 43.72152654452689, "lon": -82.49606270572517, "alt_km": 554.4218102200675, "timestamp": "2025-12-06T16:45:43.115337+00:00", "meta": {"OBJECT_NAME": "COSMOS 2251 DEB", "OBJECT_ID": "1993-036KP", "EPOCH": "2025-12-06T02:09:25.250112", "MEAN_MOTION": 14.93529692, "ECCENTRICITY": 0.00598851, "INCLINATION": 73.9536, "RA_OF_ASC_NODE": 262.757, "ARG_OF_PERICENTER": 94.7864, "MEAN_ANOMALY": 281.1739, "EPHEMERIS_TYPE": 0, "CLASSIFICATION_TYPE": "U", "NORAD_CAT_ID": 34118, "ELEMENT_SET_NO": 999, "REV_AT_EPOCH": 89077, "BSTAR": 0.00308001, "MEAN_MOTION_DOT": 0.00033736, "MEAN_MOTION_DDOT": 0}, "tle": {"line1": "1 34118U 93036KP  25340.08987558  .00033736  00000+0  30800-2 0  9996", "line2": "2 34118  73.9536 262.7570 0059885  94.7864 281.1739 14.93529692890776"}}, "geometry": {"type": "Point", "coordinates": [-82.49606270572517, 43.72152654452689]}}, {"type": "Feature", "properties": {"norad_id": 34120, "name": "COSMOS 2251 DEB", "group": "cosmos-2251-debris", "lat": -0.9621287477637741, "lon": -133.5915358686075, "alt_km": 826.6808459238182, "timestamp": "2025-12-06T16:45:43.115347+00:00", "meta": {"OBJECT_NAME": "COSMOS 2251 DEB", "OBJECT_ID": "1993-036KR", "EPOCH": "2025-12-06T03:45:04.656960", "MEAN_MOTION": 13.98672029, "ECCENTRICITY": 0.0181662, "INCLINATION": 73.9916, "RA_OF_ASC_NODE": 227.6234, "ARG_OF_PERICENTER": 56.7876, "MEAN_ANOMALY": 95.4548, "EPHEMERIS_TYPE": 0, "CLASSIFICATION_TYPE": "U", "NORAD_CAT_ID": 34120, "ELEMENT_SET_NO": 999, "REV_AT_EPOCH": 85888, "BSTAR": 0.00060815569, "MEAN_MOTION_DOT": 9.83e-06, "MEAN_MOTION_DDOT": 0}, "tle": {"line1": "1 34120U 93036KR  25340.15630390  .00000983  00000+0  60816-3 0  9995", "line2": "2 34120  73.9916 227.6234 0181662  56.7876  95.4548 13.98672029858885"}}, "geometry": {"type": "Point", "coordinates": [-133.5915358686075, -0.9621287477637741]}}, {"type": "Feature", "properties": {"norad_id": 34121, "name": "COSMOS 2251 DEB", "group": "cosmos-2251-debris", "lat": 2.3396966203736156, "lon": 108.19525285093391, "alt_km": 805.3962109880922, "timestamp": "2025-12-06T16:45:43.115357+00:00", "meta": {"OBJECT_NAME": "COSMOS 2251 DEB", "OBJECT_ID": "1993-036KS", "EPOCH": "2025-12-05T18:54:47.539008", "MEAN_MOTION": 13.91892635, "ECCENTRICITY": 0.02398446, "INCLINATION": 73.9924, "RA_OF_ASC_NODE": 109.0825, "ARG_OF_PERICENTER": 316.0232, "MEAN_ANOMALY": 164.5726, "EPHEMERIS_TYPE": 0, "CLASSIFICATION_TYPE": "U", "NORAD_CAT_ID": 34121, "ELEMENT_SET_NO": 999, "REV_AT_EPOCH": 85028, "BSTAR": 0.0018903686, "MEAN_MOTION_DOT": 3.022e-05, "MEAN_MOTION_DDOT": 0}, "tle": {"line1": "1 34121U 93036KS  25339.78805022  .00003022  00000+0  18904-2 0  9996", "line2": "2 34121  73.9924 109.0825 0239844 316.0232 164.5726 13.91892635850280"}}, "geometry": {"type": "Point", "coordinates": [108.19525285093391, 2.3396966203736156]}}, {"type": "Feature", "properties": {"norad_id": 34122, "name": "COSMOS 2251 DEB", "group": "cosmos-2251-debris", "lat": 68.94252982254189, "lon": -97.77654286993524, "alt_km": 654.4278660876043, "timestamp": "2025-12-06T16:45:43.115367+00:00", "meta": {"OBJECT_NAME": "COSMOS 2251 DEB", "OBJECT_ID": "1993-036KT", "EPOCH": "2025-12-05T11:04:07.095072", "MEAN_MOTION": 14.64905259, "ECCENTRICITY": 0.00839377, "INCLINATION": 74.0353, "RA_OF_ASC_NODE": 132.6349, "ARG_OF_PERICENTER": 31.593, "MEAN_ANOMALY": 29.2974, "EPHEMERIS_TYPE": 0, "CLASSIFICATION_TYPE": "U", "NORAD_CAT_ID": 34122, "ELEMENT_SET_NO": 999, "REV_AT_EPOCH": 88578, "BSTAR": 0.0020929875, "MEAN_MOTION_DOT": 0.00011775, "MEAN_MOTION_DDOT": 0}, "tle": {"line1": "1 34122U 93036KT  25339.46119323  .00011775  00000+0  20930-2 0  9990", "line2": "2 34122  74.0353 132.6349 0083937  31.5930  29.2974 14.64905259885789"}}, "geometry": {"type": "Point", "coordinates": [-97.77654286993524, 68.94252982254189]}}, {"type": "Feature", "properties": {"norad_id": 34127, "name": "COSMOS 2251 DEB", "group": "cosmos-2251-debris", "lat": 21.703938674298644, "lon": 61.26216723103974, "alt_km": 834.6527328501852, "timestamp": "2025-12-06T16:45:43.115377+00:00", "meta": {"OBJECT_NAME": "COSMOS 2251 DEB", "OBJECT_ID": "1993-036KY", "EPOCH": "2025-12-06T05:03:11.876832", "MEAN_MOTION": 14.31439165, "ECCENTRICITY": 0.01147761, "INCLINATION": 74.18, "RA_OF_ASC_NODE": 55.6634, "ARG_OF_PERICENTER": 257.2051, "MEAN_ANOMALY": 131.4114, "EPHEMERIS_TYPE": 0, "CLASSIFICATION_TYPE": "U", "NORAD_CAT_ID": 34127, "ELEMENT_SET_NO": 999, "REV_AT_EPOCH": 86678, "BSTAR": 0.0031030837, "MEAN_MOTION_DOT": 8.838e-05, "MEAN_MOTION_DDOT": 0}, "tle": {"line1": "1 34127U 93036KY  25340.21055413  .00008838  00000+0  31031-2 0  9999", "line2": "2 34127  74.1800  55.6634 0114776 257.2051 131.4114 14.31439165866783"}}, "geometry": {"type": "Point", "coordinates": [61.26216723103974, 21.703938674298644]}}, {"type": "Feature", "properties": {"norad_id": 34128, "name": "COSMOS 2251 DEB", "group": "cosmos-2251-debris", "lat": 19.999332165324258, "lon": 123.05183601383375, "alt_km": 566.9017550846829, "timestamp": "2025-12-06T16:45:43.115387+00:00", "meta": {"OBJECT_NAME": "COSMOS 2251 DEB", "OBJECT_ID": "1993-036KZ", "EPOCH": "2025-12-06T00:22:04.434240", "MEAN_MOTION": 15.00659351, "ECCENTRICITY": 0.00262365, "INCLINATION": 73.9994, "RA_OF_ASC_NODE": 310.4389, "ARG_OF_PERICENTER": 62.7472, "MEAN_ANOMALY": 7.2179, "EPHEMERIS_TYPE": 0, "CLASSIFICATION_TYPE": "U", "NORAD_CAT_ID": 34128, "ELEMENT_SET_NO": 999, "REV_AT_EPOCH": 89066, "BSTAR": 0.0031617168, "MEAN_MOTION_DOT": 0.00040496, "MEAN_MOTION_DDOT": 0}, "tle": {"line1": "1 34128U 93036KZ  25340.01532910  .00040496  00000+0  31617-2 0  9996", "line2": "2 34128  73.9994 310.4389 0026236  62.7472   7.2179 15.00659351890666"}}, "geometry": {"type": "Point", "coordinates": [123.05183601383375, 19.999332165324258]}}, {"type": "Feature", "properties": {"norad_id": 34129, "name": "COSMOS 2251 DEB", "group": "cosmos-2251-debris", "lat": -73.34766308903357, "lon": -115.49269287394422, "alt_km": 672.8664234985981, "timestamp": "2025-12-06T16:45:43.115398+00:00", "meta": {"OBJECT_NAME": "COSMOS 2251 DEB", "OBJECT_ID": "1993-036LA", "EPOCH": "2025-12-06T07:25:45.240096", "MEAN_MOTION": 14.75569854, "ECCENTRICITY": 0.00327236, "INCLINATION": 74.0347, "RA_OF_ASC_NODE": 352.1073, "ARG_OF_PERICENTER": 75.7953, "MEAN_ANOMALY": 284.6853, "EPHEMERIS_TYPE": 0, "CLASSIFICATION_TYPE": "U", "NORAD_CAT_ID": 34129, "ELEMENT_SET_NO": 999, "REV_AT_EPOCH": 61203, "BSTAR": 0.002159199, "MEAN_MOTION_DOT": 0.00014849, "MEAN_MOTION_DDOT": 0}, "tle": {"line1": "1 34129U 93036LA  25340.30955139  .00014849  00000+0  21592-2 0  9995", "line2": "2 34129  74.0347 352.1073 0032723  75.7953 284.6853 14.75569854612032"}}, "geometry": {"type": "Point", "coordinates": [-115.49269287394422, -73.34766308903357]}}, {"type": "Feature", "properties": {"norad_id": 34136, "name": "COSMOS 2251 DEB", "group": "cosmos-2251-debris", "lat": -33.69049111426667, "lon": 43.53528719047723, "alt_km": 684.980423770402, "timestamp": "2025-12-06T16:45:43.115408+00:00", "meta": {"OBJECT_NAME": "COSMOS 2251 DEB", "OBJECT_ID": "1993-036LH", "EPOCH": "2025-12-06T05:41:52.757088", "MEAN_MOTION": 14.80003555, "ECCENTRICITY": 0.00863302, "INCLINATION": 74.0218, "RA_OF_ASC_NODE": 55.4562, "ARG_OF_PERICENTER": 180.1413, "MEAN_ANOMALY": 208.9692, "EPHEMERIS_TYPE": 0, "CLASSIFICATION_TYPE": "U", "NORAD_CAT_ID": 34136, "ELEMENT_SET_NO": 999, "REV_AT_EPOCH": 89914, "BSTAR": 0.00090499088, "MEAN_MOTION_DOT": 7.267e-05, "MEAN_MOTION_DDOT": 0}, "tle": {"line1": "1 34136U 93036LH  25340.23741617  .00007267  00000+0  90499-3 0  9998", "line2": "2 34136  74.0218  55.4562 0086330 180.1413 208.9692 14.80003555899144"}}, "geometry": {"type": "Point", "coordinates": [43.53528719047723, -33.69049111426667]}}, {"type": "Feature", "properties": {"norad_id": 34139, "name": "COSMOS 2251 DEB", "group": "cosmos-2251-debris", "lat": 35.32272635811586, "lon": 73.86922067763814, "alt_km": 723.065213832997, "timestamp": "2025-12-06T16:45:43.115418+00:00", "meta": {"OBJECT_NAME": "COSMOS 2251 DEB", "OBJECT_ID": "1993-036LL", "EPOCH": "2025-12-05T22:19:35.867136", "MEAN_MOTION": 14.58911278, "ECCENTRICITY": 0.00425861, "INCLINATION": 74.0319, "RA_OF_ASC_NODE": 267.0391, "ARG_OF_PERICENTER": 339.131, "MEAN_ANOMALY": 90.9886, "EPHEMERIS_TYPE": 0, "CLASSIFICATION_TYPE": "U", "NORAD_CAT_ID": 34139, "ELEMENT_SET_NO": 999, "REV_AT_EPOCH": 88050, "BSTAR": 0.0025037746, "MEAN_MOTION_DOT": 0.00011873, "MEAN_MOTION_DDOT": 0}, "tle": {"line1": "1 34139U 93036LL  25339.93027624  .00011873  00000+0  25038-2 0  9995", "line2": "2 34139  74.0319 267.0391 0042586 339.1310  90.9886 14.58911278880506"}}, "geometry": {"type": "Point", "coordinates": [73.86922067763814, 35.32272635811586]}}]}